STARLINK-36622          
1 67667U 26022V   26052.56690506  .00168113  00000+0  11039-2 0  9991
2 67667  97.2839  85.7894 0001850  63.0282 297.1172 15.75232459  3014
STARLINK-36625          
1 67668U 26022W   26052.56549357  .00175587  00000+0  11516-2 0  9992
2 67668  97.2839  85.7909 0001855  66.8350 293.3111 15.75238238  3016
STARLINK-36639          
1 67669U 26022X   26052.56372837  .00268964  00000+0  17422-2 0  9994
2 67669  97.2838  85.7935 0001556  83.8607 276.2835 15.75266123  3014
STARLINK-36596          
1 67670U 26022Y   26052.56196404  .00152298  00000+0  10023-2 0  9992
2 67670  97.2842  85.7956 0001465 109.7291 250.4133 15.75226014  3010
STARLINK-36297          
1 67671U 26022Z   26052.55984921  .00185978  00000+0  12193-2 0  9992
2 67671  97.2844  85.7983 0002004  82.0073 278.1419 15.75218357  3019
STARLINK-36616          
1 67672U 26022AA  26052.56125902  .00185627  00000+0  12162-2 0  9997
2 67672  97.2842  85.7963 0001421  96.2485 263.8942 15.75233959  3019
COSMOS 2600             
1 67674U 26023A   26051.96370345  .00067013  00000+0  31288-3 0  9995
2 67674  96.6465 128.1290 0001233  50.1611 309.9769 15.83114690  2401
2026-023B               
1 67675U 26023B   26052.62067025  .00011233  00000+0  48397-3 0  9990
2 67675  96.6382 127.4312 0018238 187.4755 172.6214 15.22562878  2412
2026-023C               
1 67676U 26023C   26052.62001384  .00013051  00000+0  56011-3 0  9999
2 67676  96.6417 127.4476 0019433 177.4250 182.7092 15.22643378  2578
2026-023D               
1 67677U 26023D   26052.62129324  .00010248  00000+0  44245-3 0  9996
2 67677  96.6448 127.4329 0019581 182.4609 177.6536 15.22491822  2401
2026-023E               
1 67678U 26023E   26052.62029529  .00011806  00000+0  50734-3 0  9994
2 67678  96.6341 127.4280 0019397 181.9276 178.1891 15.22618385  2404
2026-023F               
1 67679U 26023F   26052.48742804  .00013025  00000+0  55659-3 0  9993
2 67679  96.6350 129.8097 0021301 177.1610 182.9753 15.22753748  2373
