CCSDS_OMM_VERS = 2.0
CREATION_DATE  = 
ORIGINATOR     = 

OBJECT_NAME    = STARLINK-36622
OBJECT_ID      = 2026-022V
CENTER_NAME    = EARTH
REF_FRAME      = TEME
TIME_SYSTEM    = UTC
MEAN_ELEMENT_THEORY = SGP/SGP4

EPOCH          = 2026-02-21T13:36:20.597184
MEAN_MOTION    = 15.75232459
ECCENTRICITY   = .00018503
INCLINATION    = 97.2839
RA_OF_ASC_NODE = 85.7894
ARG_OF_PERICENTER = 63.0282
MEAN_ANOMALY   = 297.1172

EPHEMERIS_TYPE = 0
CLASSIFICATION_TYPE = U
NORAD_CAT_ID   = 67667
ELEMENT_SET_NO = 999
REV_AT_EPOCH   = 301
BSTAR          = .11038759E-2
MEAN_MOTION_DOT = .168113E-2
MEAN_MOTION_DDOT = 0

CCSDS_OMM_VERS = 2.0
CREATION_DATE  = 
ORIGINATOR     = 

OBJECT_NAME    = STARLINK-36625
OBJECT_ID      = 2026-022W
CENTER_NAME    = EARTH
REF_FRAME      = TEME
TIME_SYSTEM    = UTC
MEAN_ELEMENT_THEORY = SGP/SGP4

EPOCH          = 2026-02-21T13:34:18.644448
MEAN_MOTION    = 15.75238238
ECCENTRICITY   = .00018559
INCLINATION    = 97.2839
RA_OF_ASC_NODE = 85.7909
ARG_OF_PERICENTER = 66.8350
MEAN_ANOMALY   = 293.3111

EPHEMERIS_TYPE = 0
CLASSIFICATION_TYPE = U
NORAD_CAT_ID   = 67668
ELEMENT_SET_NO = 999
REV_AT_EPOCH   = 301
BSTAR          = .11516112E-2
MEAN_MOTION_DOT = .175587E-2
MEAN_MOTION_DDOT = 0

CCSDS_OMM_VERS = 2.0
CREATION_DATE  = 
ORIGINATOR     = 

OBJECT_NAME    = STARLINK-36639
OBJECT_ID      = 2026-022X
CENTER_NAME    = EARTH
REF_FRAME      = TEME
TIME_SYSTEM    = UTC
MEAN_ELEMENT_THEORY = SGP/SGP4

EPOCH          = 2026-02-21T13:31:46.131168
MEAN_MOTION    = 15.75266123
ECCENTRICITY   = .00015562
INCLINATION    = 97.2838
RA_OF_ASC_NODE = 85.7935
ARG_OF_PERICENTER = 83.8607
MEAN_ANOMALY   = 276.2835

EPHEMERIS_TYPE = 0
CLASSIFICATION_TYPE = U
NORAD_CAT_ID   = 67669
ELEMENT_SET_NO = 999
REV_AT_EPOCH   = 301
BSTAR          = .17421769E-2
MEAN_MOTION_DOT = .268964E-2
MEAN_MOTION_DDOT = 0

CCSDS_OMM_VERS = 2.0
CREATION_DATE  = 
ORIGINATOR     = 

OBJECT_NAME    = STARLINK-36596
OBJECT_ID      = 2026-022Y
CENTER_NAME    = EARTH
REF_FRAME      = TEME
TIME_SYSTEM    = UTC
MEAN_ELEMENT_THEORY = SGP/SGP4

EPOCH          = 2026-02-21T13:29:13.693056
MEAN_MOTION    = 15.75226014
ECCENTRICITY   = .00014658
INCLINATION    = 97.2842
RA_OF_ASC_NODE = 85.7956
ARG_OF_PERICENTER = 109.7291
MEAN_ANOMALY   = 250.4133

EPHEMERIS_TYPE = 0
CLASSIFICATION_TYPE = U
NORAD_CAT_ID   = 67670
ELEMENT_SET_NO = 999
REV_AT_EPOCH   = 301
BSTAR          = .10022723E-2
MEAN_MOTION_DOT = .152298E-2
MEAN_MOTION_DDOT = 0

CCSDS_OMM_VERS = 2.0
CREATION_DATE  = 
ORIGINATOR     = 

OBJECT_NAME    = STARLINK-36297
OBJECT_ID      = 2026-022Z
CENTER_NAME    = EARTH
REF_FRAME      = TEME
TIME_SYSTEM    = UTC
MEAN_ELEMENT_THEORY = SGP/SGP4

EPOCH          = 2026-02-21T13:26:10.971744
MEAN_MOTION    = 15.75218357
ECCENTRICITY   = .0002004
INCLINATION    = 97.2844
RA_OF_ASC_NODE = 85.7983
ARG_OF_PERICENTER = 82.0073
MEAN_ANOMALY   = 278.1419

EPHEMERIS_TYPE = 0
CLASSIFICATION_TYPE = U
NORAD_CAT_ID   = 67671
ELEMENT_SET_NO = 999
REV_AT_EPOCH   = 301
BSTAR          = .12192599E-2
MEAN_MOTION_DOT = .185978E-2
MEAN_MOTION_DDOT = 0

CCSDS_OMM_VERS = 2.0
CREATION_DATE  = 
ORIGINATOR     = 

OBJECT_NAME    = STARLINK-36616
OBJECT_ID      = 2026-022AA
CENTER_NAME    = EARTH
REF_FRAME      = TEME
TIME_SYSTEM    = UTC
MEAN_ELEMENT_THEORY = SGP/SGP4

EPOCH          = 2026-02-21T13:28:12.779328
MEAN_MOTION    = 15.75233959
ECCENTRICITY   = .00014211
INCLINATION    = 97.2842
RA_OF_ASC_NODE = 85.7963
ARG_OF_PERICENTER = 96.2485
MEAN_ANOMALY   = 263.8942

EPHEMERIS_TYPE = 0
CLASSIFICATION_TYPE = U
NORAD_CAT_ID   = 67672
ELEMENT_SET_NO = 999
REV_AT_EPOCH   = 301
BSTAR          = .12162232E-2
MEAN_MOTION_DOT = .185627E-2
MEAN_MOTION_DDOT = 0

CCSDS_OMM_VERS = 2.0
CREATION_DATE  = 
ORIGINATOR     = 

OBJECT_NAME    = COSMOS 2600
OBJECT_ID      = 2026-023A
CENTER_NAME    = EARTH
REF_FRAME      = TEME
TIME_SYSTEM    = UTC
MEAN_ELEMENT_THEORY = SGP/SGP4

EPOCH          = 2026-02-20T23:07:43.978080
MEAN_MOTION    = 15.83114690
ECCENTRICITY   = .0001233
INCLINATION    = 96.6465
RA_OF_ASC_NODE = 128.1290
ARG_OF_PERICENTER = 50.1611
MEAN_ANOMALY   = 309.9769

EPHEMERIS_TYPE = 0
CLASSIFICATION_TYPE = U
NORAD_CAT_ID   = 67674
ELEMENT_SET_NO = 999
REV_AT_EPOCH   = 240
BSTAR          = .31288E-3
MEAN_MOTION_DOT = .67013E-3
MEAN_MOTION_DDOT = 0

CCSDS_OMM_VERS = 2.0
CREATION_DATE  = 
ORIGINATOR     = 

OBJECT_NAME    = 2026-023B
OBJECT_ID      = 2026-023B
CENTER_NAME    = EARTH
REF_FRAME      = TEME
TIME_SYSTEM    = UTC
MEAN_ELEMENT_THEORY = SGP/SGP4

EPOCH          = 2026-02-21T14:53:45.909600
MEAN_MOTION    = 15.22562878
ECCENTRICITY   = .00182381
INCLINATION    = 96.6382
RA_OF_ASC_NODE = 127.4312
ARG_OF_PERICENTER = 187.4755
MEAN_ANOMALY   = 172.6214

EPHEMERIS_TYPE = 0
CLASSIFICATION_TYPE = U
NORAD_CAT_ID   = 67675
ELEMENT_SET_NO = 999
REV_AT_EPOCH   = 241
BSTAR          = .48396509E-3
MEAN_MOTION_DOT = .11233E-3
MEAN_MOTION_DDOT = 0

CCSDS_OMM_VERS = 2.0
CREATION_DATE  = 
ORIGINATOR     = 

OBJECT_NAME    = 2026-023C
OBJECT_ID      = 2026-023C
CENTER_NAME    = EARTH
REF_FRAME      = TEME
TIME_SYSTEM    = UTC
MEAN_ELEMENT_THEORY = SGP/SGP4

EPOCH          = 2026-02-21T14:52:49.195776
MEAN_MOTION    = 15.22643378
ECCENTRICITY   = .00194334
INCLINATION    = 96.6417
RA_OF_ASC_NODE = 127.4476
ARG_OF_PERICENTER = 177.4250
MEAN_ANOMALY   = 182.7092

EPHEMERIS_TYPE = 0
CLASSIFICATION_TYPE = U
NORAD_CAT_ID   = 67676
ELEMENT_SET_NO = 999
REV_AT_EPOCH   = 257
BSTAR          = .56010722E-3
MEAN_MOTION_DOT = .13051E-3
MEAN_MOTION_DDOT = 0

CCSDS_OMM_VERS = 2.0
CREATION_DATE  = 
ORIGINATOR     = 

OBJECT_NAME    = 2026-023D
OBJECT_ID      = 2026-023D
CENTER_NAME    = EARTH
REF_FRAME      = TEME
TIME_SYSTEM    = UTC
MEAN_ELEMENT_THEORY = SGP/SGP4

EPOCH          = 2026-02-21T14:54:39.735936
MEAN_MOTION    = 15.22491822
ECCENTRICITY   = .0019581
INCLINATION    = 96.6448
RA_OF_ASC_NODE = 127.4329
ARG_OF_PERICENTER = 182.4609
MEAN_ANOMALY   = 177.6536

EPHEMERIS_TYPE = 0
CLASSIFICATION_TYPE = U
NORAD_CAT_ID   = 67677
ELEMENT_SET_NO = 999
REV_AT_EPOCH   = 240
BSTAR          = .44244583E-3
MEAN_MOTION_DOT = .10248E-3
MEAN_MOTION_DDOT = 0

CCSDS_OMM_VERS = 2.0
CREATION_DATE  = 
ORIGINATOR     = 

OBJECT_NAME    = 2026-023E
OBJECT_ID      = 2026-023E
CENTER_NAME    = EARTH
REF_FRAME      = TEME
TIME_SYSTEM    = UTC
MEAN_ELEMENT_THEORY = SGP/SGP4

EPOCH          = 2026-02-21T14:53:13.513056
MEAN_MOTION    = 15.22618385
ECCENTRICITY   = .00193977
INCLINATION    = 96.6341
RA_OF_ASC_NODE = 127.4280
ARG_OF_PERICENTER = 181.9276
MEAN_ANOMALY   = 178.1891

EPHEMERIS_TYPE = 0
CLASSIFICATION_TYPE = U
NORAD_CAT_ID   = 67678
ELEMENT_SET_NO = 999
REV_AT_EPOCH   = 240
BSTAR          = .50734131E-3
MEAN_MOTION_DOT = .11806E-3
MEAN_MOTION_DDOT = 0

CCSDS_OMM_VERS = 2.0
CREATION_DATE  = 
ORIGINATOR     = 

OBJECT_NAME    = 2026-023F
OBJECT_ID      = 2026-023F
CENTER_NAME    = EARTH
REF_FRAME      = TEME
TIME_SYSTEM    = UTC
MEAN_ELEMENT_THEORY = SGP/SGP4

EPOCH          = 2026-02-21T11:41:53.782656
MEAN_MOTION    = 15.22753748
ECCENTRICITY   = .00213013
INCLINATION    = 96.6350
RA_OF_ASC_NODE = 129.8097
ARG_OF_PERICENTER = 177.1610
MEAN_ANOMALY   = 182.9753

EPHEMERIS_TYPE = 0
CLASSIFICATION_TYPE = U
NORAD_CAT_ID   = 67679
ELEMENT_SET_NO = 999
REV_AT_EPOCH   = 237
BSTAR          = .55658889E-3
MEAN_MOTION_DOT = .13025E-3
MEAN_MOTION_DDOT = 0

